HST                     
1 20580U 90037B   24070.30602738  .00005631  00000+0  27368-3 0  9999
2 20580  28.4677 286.8721 0003014  40.4802 319.6014 15.16246028662004
